{"type": "FeatureCollection", "features": [ {"type": "Feature", "properties": {"norad_id": 66870, "name": "STARLINK-36114", "group": "last-30-days", "lat": 35.978907279381495, "lon": 161.4665508738443, "alt_km": 409.75335216084113, "timestamp": "2025-12-27T14:26:29.243952+00:00", "meta": {"OBJECT_NAME": "STARLINK-36114", "OBJECT_ID": "2025-281Y", "EPOCH": "2025-12-27T06:00:02.000160", "MEAN_MOTION": 15.50711301, "ECCENTRICITY": 0.00011031, "INCLINATION": 43.0001, "RA_OF_ASC_NODE": 34.7002, "ARG_OF_PERICENTER": 243.725, "MEAN_ANOMALY": 71.0549, "EPHEMERIS_TYPE": 0, "CLASSIFICATION_TYPE": "U", "NORAD_CAT_ID": 66870, "ELEMENT_SET_NO": 999, "REV_AT_EPOCH": 361, "BSTAR": -0.0033354988, "MEAN_MOTION_DOT": -0.00192192, "MEAN_MOTION_DDOT": 0}, "tle": {"line1": "1 66870U 25281Y   25361.25002315 -.00192192  00000+0 -33355-2 0  9996", "line2": "2 66870  43.0001  34.7002 0001103 243.7250  71.0549 15.50711301  3611"}}, "geometry": {"type": "Point", "coordinates": [161.4665508738443, 35.978907279381495]}}, {"type": "Feature", "properties": {"norad_id": 66871, "name": "STARLINK-36095", "group": "last-30-days", "lat": 35.13752872817968, "lon": 163.5889066449496, "alt_km": 409.77085585193436, "timestamp": "2025-12-27T14:26:29.243964+00:00", "meta": {"OBJECT_NAME": "STARLINK-36095", "OBJECT_ID": "2025-281Z", "EPOCH": "2025-12-27T06:00:02.000160", "MEAN_MOTION": 15.50711099, "ECCENTRICITY": 9.162e-05, "INCLINATION": 43.0002, "RA_OF_ASC_NODE": 34.6947, "ARG_OF_PERICENTER": 240.5382, "MEAN_ANOMALY": 76.1646, "EPHEMERIS_TYPE": 0, "CLASSIFICATION_TYPE": "U", "NORAD_CAT_ID": 66871, "ELEMENT_SET_NO": 999, "REV_AT_EPOCH": 375, "BSTAR": -0.0033953525, "MEAN_MOTION_DOT": -0.00195546, "MEAN_MOTION_DDOT": 0}, "tle": {"line1": "1 66871U 25281Z   25361.25002315 -.00195546  00000+0 -33954-2 0  9998", "line2": "2 66871  43.0002  34.6947 0000916 240.5382  76.1646 15.50711099  3755"}}, "geometry": {"type": "Point", "coordinates": [163.5889066449496, 35.13752872817968]}}, {"type": "Feature", "properties": {"norad_id": 66872, "name": "STARLINK-36082", "group": "last-30-days", "lat": 34.2661082303513, "lon": 165.65266917664044, "alt_km": 410.06509140045546, "timestamp": "2025-12-27T14:26:29.243974+00:00", "meta": {"OBJECT_NAME": "STARLINK-36082", "OBJECT_ID": "2025-281AA", "EPOCH": "2025-12-27T06:00:02.000160", "MEAN_MOTION": 15.50705664, "ECCENTRICITY": 0.00012056, "INCLINATION": 43.0001, "RA_OF_ASC_NODE": 34.6902, "ARG_OF_PERICENTER": 247.6065, "MEAN_ANOMALY": 71.0077, "EPHEMERIS_TYPE": 0, "CLASSIFICATION_TYPE": "U", "NORAD_CAT_ID": 66872, "ELEMENT_SET_NO": 999, "REV_AT_EPOCH": 361, "BSTAR": -0.0031698167, "MEAN_MOTION_DOT": -0.00182843, "MEAN_MOTION_DDOT": 0}, "tle": {"line1": "1 66872U 25281AA  25361.25002315 -.00182843  00000+0 -31698-2 0  9998", "line2": "2 66872  43.0001  34.6902 0001205 247.6065  71.0077 15.50705664  3612"}}, "geometry": {"type": "Point", "coordinates": [165.65266917664044, 34.2661082303513]}}, {"type": "Feature", "properties": {"norad_id": 66873, "name": "STARLINK-36128", "group": "last-30-days", "lat": 31.440478420988743, "lon": 171.61530764913266, "alt_km": 410.3553709703474, "timestamp": "2025-12-27T14:26:29.243984+00:00", "meta": {"OBJECT_NAME": "STARLINK-36128", "OBJECT_ID": "2025-281AB", "EPOCH": "2025-12-27T06:00:02.000160", "MEAN_MOTION": 15.50712405, "ECCENTRICITY": 0.00011563, "INCLINATION": 43.0002, "RA_OF_ASC_NODE": 34.6749, "ARG_OF_PERICENTER": 240.851, "MEAN_ANOMALY": 83.5155, "EPHEMERIS_TYPE": 0, "CLASSIFICATION_TYPE": "U", "NORAD_CAT_ID": 66873, "ELEMENT_SET_NO": 999, "REV_AT_EPOCH": 375, "BSTAR": -0.0033963027, "MEAN_MOTION_DOT": -0.00195613, "MEAN_MOTION_DDOT": 0}, "tle": {"line1": "1 66873U 25281AB  25361.25002315 -.00195613  00000+0 -33963-2 0  9995", "line2": "2 66873  43.0002  34.6749 0001156 240.8510  83.5155 15.50712405  3759"}}, "geometry": {"type": "Point", "coordinates": [171.61530764913266, 31.440478420988743]}}, {"type": "Feature", "properties": {"norad_id": 66874, "name": "STARLINK-36129", "group": "last-30-days", "lat": 33.331156767412956, "lon": 167.73596957047607, "alt_km": 410.2502914821598, "timestamp": "2025-12-27T14:26:29.243994+00:00", "meta": {"OBJECT_NAME": "STARLINK-36129", "OBJECT_ID": "2025-281AC", "EPOCH": "2025-12-27T06:00:02.000160", "MEAN_MOTION": 15.50829673, "ECCENTRICITY": 9.269e-05, "INCLINATION": 42.9999, "RA_OF_ASC_NODE": 34.6847, "ARG_OF_PERICENTER": 254.0914, "MEAN_ANOMALY": 66.4348, "EPHEMERIS_TYPE": 0, "CLASSIFICATION_TYPE": "U", "NORAD_CAT_ID": 66874, "ELEMENT_SET_NO": 999, "REV_AT_EPOCH": 375, "BSTAR": -0.0070863718, "MEAN_MOTION_DOT": -0.00399097, "MEAN_MOTION_DDOT": 0}, "tle": {"line1": "1 66874U 25281AC  25361.25002315 -.00399097  00000+0 -70864-2 0  9999", "line2": "2 66874  42.9999  34.6847 0000926 254.0914  66.4348 15.50829673  3751"}}, "geometry": {"type": "Point", "coordinates": [167.73596957047607, 33.331156767412956]}}, {"type": "Feature", "properties": {"norad_id": 66875, "name": "STARLINK-36053", "group": "last-30-days", "lat": 30.444211463599228, "lon": 173.5086112015683, "alt_km": 410.4779112906481, "timestamp": "2025-12-27T14:26:29.244006+00:00", "meta": {"OBJECT_NAME": "STARLINK-36053", "OBJECT_ID": "2025-281AD", "EPOCH": "2025-12-27T06:00:02.000160", "MEAN_MOTION": 15.50699376, "ECCENTRICITY": 0.00011691, "INCLINATION": 43.0001, "RA_OF_ASC_NODE": 34.6695, "ARG_OF_PERICENTER": 241.0767, "MEAN_ANOMALY": 85.2008, "EPHEMERIS_TYPE": 0, "CLASSIFICATION_TYPE": "U", "NORAD_CAT_ID": 66875, "ELEMENT_SET_NO": 999, "REV_AT_EPOCH": 375, "BSTAR": -0.0029133299, "MEAN_MOTION_DOT": -0.00168346, "MEAN_MOTION_DDOT": 0}, "tle": {"line1": "1 66875U 25281AD  25361.25002315 -.00168346  00000+0 -29133-2 0  9994", "line2": "2 66875  43.0001  34.6695 0001169 241.0767  85.2008 15.50699376  3758"}}, "geometry": {"type": "Point", "coordinates": [173.5086112015683, 30.444211463599228]}}, {"type": "Feature", "properties": {"norad_id": 66876, "name": "STARLINK-35702", "group": "last-30-days", "lat": 32.40550895210463, "lon": 169.68623707673078, "alt_km": 410.3039602101853, "timestamp": "2025-12-27T14:26:29.244017+00:00", "meta": {"OBJECT_NAME": "STARLINK-35702", "OBJECT_ID": "2025-281AE", "EPOCH": "2025-12-27T06:00:02.000160", "MEAN_MOTION": 15.50740482, "ECCENTRICITY": 0.00010619, "INCLINATION": 43.0001, "RA_OF_ASC_NODE": 34.6797, "ARG_OF_PERICENTER": 247.9611, "MEAN_ANOMALY": 74.4894, "EPHEMERIS_TYPE": 0, "CLASSIFICATION_TYPE": "U", "NORAD_CAT_ID": 66876, "ELEMENT_SET_NO": 999, "REV_AT_EPOCH": 375, "BSTAR": -0.0042849849, "MEAN_MOTION_DOT": -0.00245405, "MEAN_MOTION_DDOT": 0}, "tle": {"line1": "1 66876U 25281AE  25361.25002315 -.00245405  00000+0 -42850-2 0  9998", "line2": "2 66876  43.0001  34.6797 0001061 247.9611  74.4894 15.50740482  3754"}}, "geometry": {"type": "Point", "coordinates": [169.68623707673078, 32.40550895210463]}}, {"type": "Feature", "properties": {"norad_id": 66877, "name": "ZQ-3 R/B", "group": "last-30-days", "lat": 36.78622846059389, "lon": 28.604336437821175, "alt_km": 1016.9511818537421, "timestamp": "2025-12-27T14:26:29.244027+00:00", "meta": {"OBJECT_NAME": "ZQ-3 R/B", "OBJECT_ID": "2025-282A", "EPOCH": "2025-12-27T06:09:53.796096", "MEAN_MOTION": 14.89146693, "ECCENTRICITY": 0.06567306, "INCLINATION": 56.9486, "RA_OF_ASC_NODE": 0.8498, "ARG_OF_PERICENTER": 245.6918, "MEAN_ANOMALY": 107.4204, "EPHEMERIS_TYPE": 0, "CLASSIFICATION_TYPE": "U", "NORAD_CAT_ID": 66877, "ELEMENT_SET_NO": 999, "REV_AT_EPOCH": 353, "BSTAR": 0.00016713455, "MEAN_MOTION_DOT": 0.01029257, "MEAN_MOTION_DDOT": 8.011525e-06}, "tle": {"line1": "1 66877U 25282A   25361.25687264  .01029257  80115-5  16713-3 0  9997", "line2": "2 66877  56.9486   0.8498 0656730 245.6918 107.4204 14.89146693  3535"}}, "geometry": {"type": "Point", "coordinates": [28.604336437821175, 36.78622846059389]}}, {"type": "Feature", "properties": {"norad_id": 66878, "name": "STARLINK-35866", "group": "last-30-days", "lat": -45.070494641308784, "lon": -48.632025281674565, "alt_km": 417.7505655614359, "timestamp": "2025-12-27T14:26:29.244038+00:00", "meta": {"OBJECT_NAME": "STARLINK-35866", "OBJECT_ID": "2025-283A", "EPOCH": "2025-12-27T06:00:02.000160", "MEAN_MOTION": 15.53016424, "ECCENTRICITY": 0.00013615, "INCLINATION": 53.1598, "RA_OF_ASC_NODE": 1.7844, "ARG_OF_PERICENTER": 71.8156, "MEAN_ANOMALY": 59.5625, "EPHEMERIS_TYPE": 0, "CLASSIFICATION_TYPE": "U", "NORAD_CAT_ID": 66878, "ELEMENT_SET_NO": 999, "REV_AT_EPOCH": 476, "BSTAR": -0.036153668, "MEAN_MOTION_DOT": -0.02047196, "MEAN_MOTION_DDOT": 0}, "tle": {"line1": "1 66878U 25283A   25361.25002315 -.02047196  00000+0 -36154-1 0  9990", "line2": "2 66878  53.1598   1.7844 0001361  71.8156  59.5625 15.53016424  4761"}}, "geometry": {"type": "Point", "coordinates": [-48.632025281674565, -45.070494641308784]}}, {"type": "Feature", "properties": {"norad_id": 66879, "name": "STARLINK-35749", "group": "last-30-days", "lat": -42.956650944622716, "lon": -44.185881792591914, "alt_km": 417.74213722483, "timestamp": "2025-12-27T14:26:29.244049+00:00", "meta": {"OBJECT_NAME": "STARLINK-35749", "OBJECT_ID": "2025-283B", "EPOCH": "2025-12-27T06:00:02.000160", "MEAN_MOTION": 15.52935514, "ECCENTRICITY": 0.00014175, "INCLINATION": 53.16, "RA_OF_ASC_NODE": 1.7756, "ARG_OF_PERICENTER": 73.4021, "MEAN_ANOMALY": 61.8872, "EPHEMERIS_TYPE": 0, "CLASSIFICATION_TYPE": "U", "NORAD_CAT_ID": 66879, "ELEMENT_SET_NO": 999, "REV_AT_EPOCH": 476, "BSTAR": -0.034933959, "MEAN_MOTION_DOT": -0.01980131, "MEAN_MOTION_DDOT": 0}, "tle": {"line1": "1 66879U 25283B   25361.25002315 -.01980131  00000+0 -34934-1 0  9999", "line2": "2 66879  53.1600   1.7756 0001417  73.4021  61.8872 15.52935514  4768"}}, "geometry": {"type": "Point", "coordinates": [-44.185881792591914, -42.956650944622716]}}]}